{
    "links": {
        "self": "http://www.neowsapp.com/rest/v1/neo/3434374?api_key=iIulBulltgU6a56xZRHN4H3l9WmuAYTsLGpBGhQ2"
    },
    "id": "3434374",
    "neo_reference_id": "3434374",
    "name": "(2008 UB92)",
    "designation": "2008 UB92",
    "nasa_jpl_url": "http://ssd.jpl.nasa.gov/sbdb.cgi?sstr=3434374",
    "absolute_magnitude_h": 24.7,
    "estimated_diameter": {
        "kilometers": {
            "estimated_diameter_min": 0.0305179233,
            "estimated_diameter_max": 0.0682401509
        },
        "meters": {
            "estimated_diameter_min": 30.5179232594,
            "estimated_diameter_max": 68.2401509401
        },
        "miles": {
            "estimated_diameter_min": 0.0189629525,
            "estimated_diameter_max": 0.0424024508
        },
        "feet": {
            "estimated_diameter_min": 100.1244233463,
            "estimated_diameter_max": 223.8850168104
        }
    },
    "is_potentially_hazardous_asteroid": false,
    "close_approach_data": [
        {
            "close_approach_date": "2008-10-10",
            "close_approach_date_full": "2008-Oct-10 04:46",
            "epoch_date_close_approach": 1223613960000,
            "relative_velocity": {
                "kilometers_per_second": "7.4507057934",
                "kilometers_per_hour": "26822.5408563556",
                "miles_per_hour": "16666.4837893283"
            },
            "miss_distance": {
                "astronomical": "0.0578421936",
                "lunar": "22.5006133104",
                "kilometers": "8653068.958687632",
                "miles": "5376767.7268960416"
            },
            "orbiting_body": "Earth"
        }
    ],
    "orbital_data": {
        "orbit_id": "7",
        "orbit_determination_date": "2017-04-06 09:02:23",
        "first_observation_date": "2008-10-29",
        "last_observation_date": "2008-10-30",
        "data_arc_in_days": 1,
        "observations_used": 15,
        "orbit_uncertainty": "9",
        "minimum_orbit_intersection": ".0517937",
        "jupiter_tisserand_invariant": "4.394",
        "epoch_osculation": "2454769.5",
        "eccentricity": ".3440905113321814",
        "semi_major_axis": "1.539069764406521",
        "inclination": "7.264225362446628",
        "ascending_node_longitude": "30.92419639311937",
        "orbital_period": "697.4063324490951",
        "perihelion_distance": "1.009490462195981",
        "perihelion_argument": "317.5727367073085",
        "aphelion_distance": "2.06864906661706",
        "perihelion_time": "2454725.107083834513",
        "mean_anomaly": "22.9155501979068",
        "mean_motion": ".5161983527390426",
        "equinox": "J2000",
        "orbit_class": {
            "orbit_class_type": "APO",
            "orbit_class_description": "Near-Earth asteroid orbits which cross the Earth’s orbit similar to that of 1862 Apollo",
            "orbit_class_range": "a (semi-major axis) > 1.0 AU; q (perihelion) < 1.017 AU"
        }
    },
    "is_sentry_object": false
}